NORAD_CAT_ID,OBJECT_NAME,OBJECT_TYPE,EPOCH,MEAN_MOTION,ECCENTRICITY,INCLINATION,RA_OF_ASC_NODE,ARG_OF_PERICENTER,MEAN_ANOMALY,BSTAR,MEAN_MOTION_DOT,MEAN_MOTION_DDOT,TLE_LINE0,TLE_LINE1,TLE_LINE2,SEMIMAJOR_AXIS,PERIOD,APOGEE,PERIGEE,DECAYED
53036.0,STARLINK-4155,PAYLOAD,2024-07-27 06:46:43,15.08827623,0.0001366,53.2151,204.5621,95.9364,264.1784,-4.08e-08,-2.89e-06,0.0,0 STARLINK-4155,1 53036U 22076BC  24209.28244594 -.00000289  00000-0 -40800-7 0  9999,2 53036  53.2151 204.5621 0001366  95.9364 264.1784 15.08827623114457,6917.918,95.438,540.728,538.838,0.0
53036.0,STARLINK-4155,PAYLOAD,2024-07-28 05:02:07,15.0883073,0.0001369,53.2152,200.4005,97.7221,262.3927,0.00018107,2.594e-05,0.0,0 STARLINK-4155,1 53036U 22076BC  24210.20980533  .00002594  00000-0  18107-3 0  9993,2 53036  53.2152 200.4005 0001369  97.7221 262.3927 15.08830730114591,6917.909,95.438,540.721,538.827,0.0
53036.0,STARLINK-4155,PAYLOAD,2024-07-28 09:48:16,15.08834041,0.0001382,53.2152,199.5077,96.8462,263.2687,0.00020969,3.05e-05,0.0,0 STARLINK-4155,1 53036U 22076BC  24210.40852452  .00003050  00000-0  20969-3 0  9990,2 53036  53.2152 199.5077 0001382  96.8462 263.2687 15.08834041114165,6917.899,95.438,540.72,538.808,0.0
53036.0,STARLINK-4155,PAYLOAD,2024-07-29 04:52:53,15.08849694,0.0001425,53.2154,195.9394,102.0991,258.0161,0.00018895,2.721e-05,0.0,0 STARLINK-4155,1 53036U 22076BC  24211.20339704  .00002721  00000-0  18895-3 0  9998,2 53036  53.2154 195.9394 0001425 102.0991 258.0161 15.08849694114747,6917.851,95.437,540.702,538.73,0.0
53036.0,STARLINK-4155,PAYLOAD,2024-07-29 09:39:02,15.08853722,0.000139,53.2152,195.047,101.8265,258.2883,0.00022453,3.289e-05,0.0,0 STARLINK-4155,1 53036U 22076BC  24211.40211347  .00003289  00000-0  22453-3 0  9997,2 53036  53.2152 195.0470 0001390 101.8265 258.2883 15.08853722114316,6917.838,95.437,540.665,538.742,0.0
53036.0,STARLINK-4155,PAYLOAD,2024-07-29 16:00:34,15.08859929,0.0001353,53.2152,193.8573,86.1985,273.9162,0.00026895,3.997e-05,0.0,0 STARLINK-4155,1 53036U 22076BC  24211.66706818  .00003997  00000-0  26895-3 0  9997,2 53036  53.2152 193.8573 0001353  86.1985 273.9162 15.08859929114352,6917.819,95.436,540.62,538.748,0.0
53036.0,STARLINK-4155,PAYLOAD,2024-07-30 04:43:40,15.08848616,0.0001391,53.2154,191.4782,93.1467,266.9685,8.6431e-05,1.088e-05,0.0,0 STARLINK-4155,1 53036U 22076BC  24212.19699750  .00001088  00000-0  86431-4 0  9994,2 53036  53.2154 191.4782 0001391  93.1467 266.9685 15.08848616114897,6917.854,95.437,540.681,538.757,0.0
53036.0,STARLINK-4155,PAYLOAD,2024-07-30 06:19:03,15.08849178,0.0001424,53.2145,191.1807,92.3755,267.74,4.0104e-05,3.5e-06,0.0,0 STARLINK-4155,1 53036U 22076BC  24212.26323288  .00000350  00000-0  40104-4 0  9990,2 53036  53.2145 191.1807 0001424  92.3755 267.7400 15.08849178114449,6917.852,95.437,540.702,538.732,0.0
53036.0,STARLINK-4155,PAYLOAD,2024-07-30 15:51:21,15.08859226,0.0001405,53.2144,189.3959,88.5495,271.5658,0.00018749,2.699e-05,0.0,0 STARLINK-4155,1 53036U 22076BC  24212.66066558  .00002699  00000-0  18749-3 0  9995,2 53036  53.2144 189.3959 0001405  88.5495 271.5658 15.08859226114962,6917.822,95.436,540.659,538.715,0.0
53036.0,STARLINK-4155,PAYLOAD,2024-07-31 06:09:49,15.08855632,0.0001422,53.2146,186.7197,91.8484,268.2671,0.0001076,1.426e-05,0.0,0 STARLINK-4155,1 53036U 22076BC  24213.25682428  .00001426  00000-0  10760-3 0  9993,2 53036  53.2146 186.7197 0001422  91.8484 268.2671 15.08855632114597,6917.833,95.437,540.681,538.714,0.0
53036.0,STARLINK-4155,PAYLOAD,2024-07-31 15:42:08,15.08857668,0.0001446,53.2153,184.9354,101.2169,258.8986,1.1948e-06,-2.69e-06,0.0,0 STARLINK-4155,1 53036U 22076BC  24213.65425940 -.00000269  00000-0  11948-5 0  9997,2 53036  53.2153 184.9354 0001446 101.2169 258.8986 15.08857668114654,6917.826,95.436,540.692,538.691,0.0
53036.0,STARLINK-4155,PAYLOAD,2024-08-01 04:25:13,15.08844399,0.0001585,53.2152,182.5542,118.6649,241.4502,5.3222e-05,5.59e-06,0.0,0 STARLINK-4155,1 53036U 22076BC  24214.18418611  .00000559  00000-0  53222-4 0  9994,2 53036  53.2152 182.5542 0001585 118.6649 241.4502 15.08844399115194,6917.867,95.437,540.828,538.635,0.0
53036.0,STARLINK-4155,PAYLOAD,2024-08-01 21:54:28,15.08841776,0.0001477,53.2144,179.2843,104.8831,255.2325,0.00013815,1.911e-05,0.0,0 STARLINK-4155,1 53036U 22076BC  24214.91282863  .00001911  00000-0  13815-3 0  9999,2 53036  53.2144 179.2843 0001477 104.8831 255.2325 15.08841776114845,6917.875,95.437,540.762,538.718,0.0
53036.0,STARLINK-4155,PAYLOAD,2024-08-02 04:16:01,15.08841167,0.0001482,53.215,178.0967,94.4747,265.6414,6.0704e-05,6.78e-06,0.0,0 STARLINK-4155,1 53036U 22076BC  24215.17779007  .00000678  00000-0  60704-4 0  9998,2 53036  53.2150 178.0967 0001482  94.4747 265.6414 15.08841167115346,6917.877,95.437,540.767,538.717,0.0
53036.0,STARLINK-4155,PAYLOAD,2024-08-02 21:45:15,15.08836469,0.000154,53.2152,174.8257,98.1567,261.96,0.00019618,2.835e-05,0.0,0 STARLINK-4155,1 53036U 22076BC  24215.90643484  .00002835  00000-0  19618-3 0  9992,2 53036  53.2152 174.8257 0001540  98.1567 261.9600 15.08836469115457,6917.891,95.438,540.822,538.691,0.0
53036.0,STARLINK-4155,PAYLOAD,2024-08-03 13:39:07,15.0884292,0.0001413,53.2149,171.8552,86.221,273.8944,0.00017095,2.434e-05,0.0,0 STARLINK-4155,1 53036U 22076BC  24216.56883338  .00002434  00000-0  17095-3 0  9991,2 53036  53.2149 171.8552 0001413  86.2210 273.8944 15.08842920115092,6917.871,95.437,540.714,538.759,0.0
53036.0,STARLINK-4155,PAYLOAD,2024-08-04 03:57:35,15.08837673,0.0001406,53.2157,169.1785,96.6339,263.4813,0.00011125,1.483e-05,0.0,0 STARLINK-4155,1 53036U 22076BC  24217.16499689  .00001483  00000-0  11125-3 0  9991,2 53036  53.2157 169.1785 0001406  96.6339 263.4813 15.08837673115648,6917.888,95.438,540.725,538.78,0.0
53036.0,STARLINK-4155,PAYLOAD,2024-08-04 13:29:53,15.08854578,0.0001497,53.2172,167.3957,102.2471,257.8689,0.00020448,2.969e-05,0.0,0 STARLINK-4155,1 53036U 22076BC  24217.56242377  .00002969  00000-0  20448-3 0  9993,2 53036  53.2172 167.3957 0001497 102.2471 257.8689 15.08854578115244,6917.836,95.437,540.736,538.665,0.0
53036.0,STARLINK-4155,PAYLOAD,2024-08-04 21:26:50,15.0883068,0.0001528,53.2161,165.9067,85.9502,274.1665,2.9389e-05,1.8e-06,0.0,0 STARLINK-4155,1 53036U 22076BC  24217.89364038  .00000180  00000-0  29389-4 0  9995,2 53036  53.2161 165.9067 0001528  85.9502 274.1665 15.08830680115294,6917.909,95.438,540.831,538.717,0.0
53036.0,STARLINK-4155,PAYLOAD,2024-08-05 13:20:41,15.08848329,0.0001662,53.2168,162.9352,100.2202,259.8977,0.00024815,3.664e-05,0.0,0 STARLINK-4155,1 53036U 22076BC  24218.55603230  .00003664  00000-0  24815-3 0  9997,2 53036  53.2168 162.9352 0001662 100.2202 259.8977 15.08848329115859,6917.855,95.437,540.87,538.57,0.0
53036.0,STARLINK-4155,PAYLOAD,2024-08-06 05:14:34,15.08812956,0.00017,53.2154,159.9576,100.8398,259.2785,0.00021991,3.211e-05,0.0,0 STARLINK-4155,1 53036U 22076BC  24219.21845082  .00003211  00000-0  21991-3 0  9994,2 53036  53.2154 159.9576 0001700 100.8398 259.2785 15.08812956115952,6917.963,95.439,541.004,538.652,0.0
53036.0,STARLINK-4155,PAYLOAD,2024-08-06 13:11:30,15.08813797,0.0001754,53.2156,158.4713,105.0891,255.0295,0.00076738,0.00011937,0.0,0 STARLINK-4155,1 53036U 22076BC  24219.54965925  .00011937  00000-0  76738-3 0  9992,2 53036  53.2156 158.4713 0001754 105.0891 255.0295 15.08813797115544,6917.96,95.439,541.039,538.612,0.0
53036.0,STARLINK-4155,PAYLOAD,2024-08-06 19:33:03,15.08825956,0.0001721,53.2155,157.2838,103.2922,256.8262,0.0012082,0.00018985,0.0,0 STARLINK-4155,1 53036U 22076BC  24219.81462320  .00018985  00000-0  12082-2 0  9994,2 53036  53.2155 157.2838 0001721 103.2922 256.8262 15.08825956115584,6917.923,95.438,540.979,538.598,0.0
53036.0,STARLINK-4155,PAYLOAD,2024-08-07 01:54:36,15.08833921,0.00016,53.2153,156.094,106.089,254.0278,0.0012355,0.00019426,0.0,0 STARLINK-4155,1 53036U 22076BC  24220.07958475  .00019426  00000-0  12355-2 0  9999,2 53036  53.2153 156.0940 0001600 106.0890 254.0278 15.08833921116088,6917.899,95.438,540.871,538.657,0.0
53036.0,STARLINK-4155,PAYLOAD,2024-08-08 01:45:22,15.08875717,0.0001456,53.215,151.6327,109.4525,250.6624,0.0013356,0.00021053,0.0,0 STARLINK-4155,1 53036U 22076BC  24221.07317244  .00021053  00000-0  13356-2 0  9994,2 53036  53.2150 151.6327 0001456 109.4525 250.6624 15.08875717115777,6917.771,95.435,540.643,538.629,0.0
53036.0,STARLINK-4155,PAYLOAD,2024-08-08 22:25:21,15.08874881,0.000139,53.215,147.7669,107.6381,252.4763,0.00063031,9.767e-05,0.0,0 STARLINK-4155,1 53036U 22076BC  24221.93427784  .00009767  00000-0  63031-3 0  9994,2 53036  53.2150 147.7669 0001390 107.6381 252.4763 15.08874881115909,6917.774,95.435,540.6,538.677,0.0
53036.0,STARLINK-4155,PAYLOAD,2024-08-09 04:46:53,15.08866746,7.82e-05,53.2147,146.5748,80.0251,280.0829,0.00048726,7.481e-05,0.0,0 STARLINK-4155,1 53036U 22076BC  24222.19923441  .00007481  00000-0  48726-3 0  9999,2 53036  53.2147 146.5748 0000782  80.0251 280.0829 15.08866746116401,6917.799,95.436,540.205,539.123,0.0
53036.0,STARLINK-4155,PAYLOAD,2024-08-10 04:37:41,15.0884773,0.0001127,53.215,142.1148,87.6299,272.4822,5.4336e-05,5.77e-06,0.0,0 STARLINK-4155,1 53036U 22076BC  24223.19283709  .00000577  00000-0  54336-4 0  9990,2 53036  53.2150 142.1148 0001127  87.6299 272.4822 15.08847730116556,6917.857,95.437,540.501,538.942,0.0
53036.0,STARLINK-4155,PAYLOAD,2024-08-10 22:06:55,15.08841802,0.0001204,53.2152,138.8425,80.9755,279.1374,0.00017546,2.506e-05,0.0,0 STARLINK-4155,1 53036U 22076BC  24223.92148005  .00002506  00000-0  17546-3 0  9995,2 53036  53.2152 138.8425 0001204  80.9755 279.1374 15.08841802116209,6917.875,95.437,540.573,538.907,0.0
53036.0,STARLINK-4155,PAYLOAD,2024-08-11 10:49:59,15.08864801,0.0001482,53.2159,136.4641,97.9474,262.1686,0.00050397,7.747e-05,0.0,0 STARLINK-4155,1 53036U 22076BC  24224.45138652  .00007747  00000-0  50397-3 0  9994,2 53036  53.2159 136.4641 0001482  97.9474 262.1686 15.08864801116745,6917.805,95.436,540.695,538.644,0.0
